[{"OBJECT_NAME":"STARLINK-2598","OBJECT_ID":"2021-038AJ","EPOCH":"2026-03-09T22:29:54.889440","MEAN_MOTION":15.30183076,"ECCENTRICITY":0.00010855,"INCLINATION":53.16,"RA_OF_ASC_NODE":344.2151,"ARG_OF_PERICENTER":106.9837,"MEAN_ANOMALY":253.1283,"EPHEMERIS_TYPE":0,"CLASSIFICATION_TYPE":"U","NORAD_CAT_ID":48385,"ELEMENT_SET_NO":999,"REV_AT_EPOCH":26852,"BSTAR":-1.463367e-5,"MEAN_MOTION_DOT":-7.92e-6,"MEAN_MOTION_DDOT":0},{"OBJECT_NAME":"TRANSPORTER-10 OBJECT AG","OBJECT_ID":"2024-043AG","EPOCH":"2026-03-09T22:12:45.387648","MEAN_MOTION":15.30759727,"ECCENTRICITY":0.00093005,"INCLINATION":97.5471,"RA_OF_ASC_NODE":205.7101,"ARG_OF_PERICENTER":226.5958,"MEAN_ANOMALY":133.4509,"EPHEMERIS_TYPE":0,"CLASSIFICATION_TYPE":"U","NORAD_CAT_ID":59128,"ELEMENT_SET_NO":999,"REV_AT_EPOCH":11192,"BSTAR":0.00032170115,"MEAN_MOTION_DOT":9.498e-5,"MEAN_MOTION_DDOT":0}]
